H1 CPF 01  gfz 2022 03 04 13  5632 terrasarx 
H2 0702601  6201 31698    2022 03 04 12 59 42 2022 03 09 00 00 42   120 1 1  0 0 0
H9
10 0 59646  32382.000000  0   -1642977.239    391001.000  -6684942.600
10 0 59646  32502.000000  0   -2235016.822   1048161.044  -6437823.353
10 0 59646  32622.000000  0   -2776897.152   1697080.579  -6078347.513
10 0 59646  32742.000000  0   -3259445.001   2325535.041  -5612712.182
10 0 59646  32862.000000  0   -3674705.603   2921481.815  -5048963.083
10 0 59646  32982.000000  0   -4016078.330   3473290.472  -4396867.005
10 0 59646  33102.000000  0   -4278427.038   3969970.880  -3667752.172
10 0 59646  33222.000000  0   -4458162.050   4401395.018  -2874320.333
10 0 59646  33342.000000  0   -4553294.226   4758508.061  -2030431.921
10 0 59646  33462.000000  0   -4563458.024   5033522.659  -1150866.625
10 0 59646  33582.000000  0   -4489903.380   5220093.143   -251063.327
10 0 59646  33702.000000  0   -4335453.114   5313462.821    653157.274
10 0 59646  33822.000000  0   -4104428.977   5310580.566   1545877.687
10 0 59646  33942.000000  0   -3802546.969   5210183.552   2411374.662
10 0 59646  34062.000000  0   -3436783.164   5012841.992   3234405.473
10 0 59646  34182.000000  0   -3015214.821   4720967.103   4000482.796
10 0 59646  34302.000000  0   -2546842.514   4338782.723   4696133.947
10 0 59646  34422.000000  0   -2041396.256   3872260.213   5309139.848
10 0 59646  34542.000000  0   -1509131.124   3329018.591   5828748.700
10 0 59646  34662.000000  0    -960616.689   2718192.937   6245860.498
10 0 59646  34782.000000  0    -406525.984   2050274.075   6553179.800
10 0 59646  34902.000000  0     142571.391   1336924.895   6745336.859
10 0 59646  35022.000000  0     676410.590    590774.017   6818976.474
10 0 59646  35142.000000  0    1185222.539   -174807.952   6772811.942
10 0 59646  35262.000000  0    1659911.607   -945946.961   6607647.003
10 0 59646  35382.000000  0    2092217.925  -1708516.508   6326362.972
10 0 59646  35502.000000  0    2474861.659  -2448395.720   5933872.500
10 0 59646  35622.000000  0    2801667.720  -3151732.116   5437039.253
10 0 59646  35742.000000  0    3067667.574  -3805203.439   4844563.368
10 0 59646  35862.000000  0    3269176.886  -4396273.951   4166835.075
10 0 59646  35982.000000  0    3403848.136  -4913441.405   3415756.620
10 0 59646  36102.000000  0    3470695.412  -5346467.413   2604534.582
10 0 59646  36222.000000  0    3470091.508  -5686587.098   1747446.474
10 0 59646  36342.000000  0    3403736.332  -5926692.175    859585.300
10 0 59646  36462.000000  0    3274598.008  -6061481.505    -43412.320
10 0 59646  36582.000000  0    3086829.012  -6087578.685   -945648.695
10 0 59646  36702.000000  0    2845656.418  -6003609.993  -1831255.650
10 0 59646  36822.000000  0    2557250.595  -5810240.907  -2684680.842
10 0 59646  36942.000000  0    2228577.050  -5510172.748  -3490967.538
10 0 59646  37062.000000  0    1867233.101  -5108097.713  -4236020.906
10 0 59646  37182.000000  0    1481275.119  -4610613.699  -4906852.576
10 0 59646  37302.000000  0    1079042.420  -4026104.881  -5491801.222
10 0 59646  37422.000000  0     668980.515  -3364590.608  -5980727.257
10 0 59646  37542.000000  0     259467.003  -2637545.732  -6365178.022
10 0 59646  37662.000000  0    -141355.888  -1857696.940  -6638522.410
10 0 59646  37782.000000  0    -525738.852  -1038798.811  -6796054.574
10 0 59646  37902.000000  0    -886470.495   -195393.154  -6835066.689
10 0 59646  38022.000000  0   -1217008.678    657444.689  -6754889.550
10 0 59646  38142.000000  0   -1511596.375   1504368.190  -6556902.228
10 0 59646  38262.000000  0   -1765359.533   2330028.920  -6244510.645
10 0 59646  38382.000000  0   -1974386.784   3119348.290  -5823096.575
10 0 59646  38502.000000  0   -2135790.038   3857790.311  -5299934.704
10 0 59646  38622.000000  0   -2247744.220   4531629.280  -4684078.638
10 0 59646  38742.000000  0   -2309506.282   5128209.266  -3986215.134
10 0 59646  38862.000000  0   -2321411.608   5636188.141  -3218487.134
10 0 59646  38982.000000  0   -2284847.546   6045761.165  -2394290.076
10 0 59646  39102.000000  0   -2202205.079   6348861.396  -1528042.799
10 0 59646  39222.000000  0   -2076809.388   6539328.576   -634934.640
10 0 59646  39342.000000  0   -1912830.398   6613042.955    269342.752
10 0 59646  39462.000000  0   -1715175.368   6568023.281   1168877.820
10 0 59646  39582.000000  0   -1489364.841   6404478.277   2047831.133
10 0 59646  39702.000000  0   -1241395.449   6124811.488   2890723.496
10 0 59646  39822.000000  0    -977594.708   5733583.229   3682715.124
10 0 59646  39942.000000  0    -704471.419   5237431.301   4409871.948
10 0 59646  40062.000000  0    -428564.606   4644950.094   5059415.884
10 0 59646  40182.000000  0    -156293.052   3966529.269   5619948.139
10 0 59646  40302.000000  0     106187.396   3214164.075   6081645.194
10 0 59646  40422.000000  0     353117.330   2401234.639   6436427.049
10 0 59646  40542.000000  0     579255.749   1542262.345   6678092.095
10 0 59646  40662.000000  0     779988.053    652646.618   6802419.834
10 0 59646  40782.000000  0     951417.863   -251612.029   6807238.980
10 0 59646  40902.000000  0    1090441.565  -1154198.445   6692463.933
10 0 59646  41022.000000  0    1194804.367  -2038777.020   6460096.803
10 0 59646  41142.000000  0    1263136.999  -2889287.127   6114195.253
10 0 59646  41262.000000  0    1294972.267  -3690236.706   5660805.840
10 0 59646  41382.000000  0    1290740.953  -4426986.854   5107862.413
10 0 59646  41502.000000  0    1251748.839  -5086022.667   4465053.438
10 0 59646  41622.000000  0    1180134.035  -5655208.924   3743658.983
10 0 59646  41742.000000  0    1078805.391  -6124024.024   2956355.432
10 0 59646  41862.000000  0     951363.148  -6483763.650   2116992.360
10 0 59646  41982.000000  0     802002.605  -6727711.650   1240347.149
10 0 59646  42102.000000  0     635404.473  -6851273.783    341860.261
10 0 59646  42222.000000  0     456613.640  -6852070.988   -562645.334
10 0 59646  42342.000000  0     270908.833  -6729984.836  -1457253.826
10 0 59646  42462.000000  0      83668.895  -6487156.290  -2326245.081
10 0 59646  42582.000000  0     -99761.709  -6127940.630  -3154376.886
10 0 59646  42702.000000  0    -274205.329  -5658819.563  -3927156.535
10 0 59646  42822.000000  0    -434778.212  -5088271.537  -4631095.789
10 0 59646  42942.000000  0    -577008.742  -4426605.111  -5253942.431
10 0 59646  43062.000000  0    -696944.403  -3685761.464  -5784886.463
10 0 59646  43182.000000  0    -791244.944  -2879089.811  -6214738.234
10 0 59646  43302.000000  0    -857260.276  -2021101.023  -6536076.521
10 0 59646  43422.000000  0    -893091.929  -1127204.645  -6743365.027
10 0 59646  43542.000000  0    -897637.428   -213434.423  -6833038.193
10 0 59646  43662.000000  0    -870616.306    703834.825  -6803555.430
10 0 59646  43782.000000  0    -812577.723   1608173.107  -6655423.825
10 0 59646  43902.000000  0    -724890.140   2483381.939  -6391190.330
10 0 59646  44022.000000  0    -609712.731   3313777.805  -6015403.709
10 0 59646  44142.000000  0    -469948.587   4084470.536  -5534545.392
10 0 59646  44262.000000  0    -309180.344   4781630.077  -4956927.915
10 0 59646  44382.000000  0    -131589.853   5392738.693  -4292563.067
10 0 59646  44502.000000  0      58137.212   5906823.844  -3552998.490
10 0 59646  44622.000000  0     254920.337   6314665.436  -2751124.903
10 0 59646  44742.000000  0     453404.443   6608973.435  -1900956.864
10 0 59646  44862.000000  0     648088.934   6784531.323  -1017389.261
10 0 59646  44982.000000  0     833462.604   6838300.193   -115933.739
10 0 59646  45102.000000  0    1004141.048   6769480.274    787559.569
10 0 59646  45222.000000  0    1155002.766   6579526.750   1677188.784
10 0 59646  45342.000000  0    1281319.278   6272120.702   2537288.293
10 0 59646  45462.000000  0    1378877.060   5853096.348   3352712.244
10 0 59646  45582.000000  0    1444088.590   5330325.570   4109108.862
10 0 59646  45702.000000  0    1474090.205   4713561.846   4793177.638
10 0 59646  45822.000000  0    1466822.229   4014247.337   5392907.348
10 0 59646  45942.000000  0    1421089.932   3245288.822   5897782.383
10 0 59646  46062.000000  0    1336606.539   2420812.935   6298962.276
10 0 59646  46182.000000  0    1214015.327   1555900.494   6589431.636
10 0 59646  46302.000000  0    1054891.553    666306.045   6764116.746
10 0 59646  46422.000000  0     861723.852   -231830.223   6819967.490
10 0 59646  46542.000000  0     637875.536  -1122273.810   6756008.360
10 0 59646  46662.000000  0     387525.875  -1988989.555   6573355.308
10 0 59646  46782.000000  0     115592.108  -2816430.258   6275197.711
10 0 59646  46902.000000  0    -172366.095  -3589817.334   5866745.110
10 0 59646  47022.000000  0    -470257.208  -4295405.368   5355139.152
10 0 59646  47142.000000  0    -771582.270  -4920728.803   4749336.234
10 0 59646  47262.000000  0   -1069572.488  -5454830.535   4059959.287
10 0 59646  47382.000000  0   -1357337.083  -5888464.620   3299114.880
10 0 59646  47502.000000  0   -1628016.996  -6214265.496   2480181.177
10 0 59646  47622.000000  0   -1874941.785  -6426882.342   1617572.109
10 0 59646  47742.000000  0   -2091786.428  -6523074.571    726478.870
10 0 59646  47862.000000  0   -2272721.678  -6501764.466   -177405.201
10 0 59646  47982.000000  0   -2412555.351  -6364046.475  -1078169.636
10 0 59646  48102.000000  0   -2506861.214  -6113152.626  -1959975.581
10 0 59646  48222.000000  0   -2552092.449  -5754375.319  -2807342.132
10 0 59646  48342.000000  0   -2545676.392  -5294949.174  -3605424.373
10 0 59646  48462.000000  0   -2486087.973  -4743894.950  -4340276.048
10 0 59646  48582.000000  0   -2372900.664  -4111831.572  -4999090.977
10 0 59646  48702.000000  0   -2206814.621  -3410762.137  -5570420.217
10 0 59646  48822.000000  0   -1989662.032  -2653838.836  -6044362.755
99
